[{"OBJECT_NAME":"STARLINK-30903","OBJECT_ID":"2023-177E","EPOCH":"2026-03-09T22:00:01.999584","MEAN_MOTION":15.26760945,"ECCENTRICITY":0.00016428,"INCLINATION":43.001,"RA_OF_ASC_NODE":349.1146,"ARG_OF_PERICENTER":270.9576,"MEAN_ANOMALY":124.2836,"EPHEMERIS_TYPE":0,"CLASSIFICATION_TYPE":"U","NORAD_CAT_ID":58355,"ELEMENT_SET_NO":999,"REV_AT_EPOCH":578,"BSTAR":-0.00070103944,"MEAN_MOTION_DOT":-0.00019028,"MEAN_MOTION_DDOT":0},{"OBJECT_NAME":"BREEZE-M DEB","OBJECT_ID":"2006-006Q","EPOCH":"2026-03-08T23:05:28.972032","MEAN_MOTION":5.87637144,"ECCENTRICITY":0.47872315,"INCLINATION":51.6578,"RA_OF_ASC_NODE":23.1112,"ARG_OF_PERICENTER":39.7753,"MEAN_ANOMALY":346.9983,"EPHEMERIS_TYPE":0,"CLASSIFICATION_TYPE":"U","NORAD_CAT_ID":32037,"ELEMENT_SET_NO":999,"REV_AT_EPOCH":38649,"BSTAR":0.0042774799,"MEAN_MOTION_DOT":9.512e-5,"MEAN_MOTION_DDOT":0}]
